#aV2020 12 22  0  0  0.00000000     288 DD+AD WGS84 FIT  NGA
## 2137 172800.00000000   300.00000000 59205 0.0000000000000
+   32     1  2  3  4  5  6  7  8  9 10 11 12 13 14 15 16 17
+         18 19 20 21 22 23 24 25 26 27 28 29 30 31 32  0  0
+          0  0  0  0  0  0  0  0  0  0  0  0  0  0  0  0  0
+          0  0  0  0  0  0  0  0  0  0  0  0  0  0  0  0  0
+          0  0  0  0  0  0  0  0  0  0  0  0  0  0  0  0  0
++         2  2  2  2  2  2  2  2  2  2  2  2  2  2  2  2  2
++         2  2  2  2  2  2  2  2  2  2  2  2  2  2  2  0  0
++         0  0  0  0  0  0  0  0  0  0  0  0  0  0  0  0  0
++         0  0  0  0  0  0  0  0  0  0  0  0  0  0  0  0  0
++         0  0  0  0  0  0  0  0  0  0  0  0  0  0  0  0  0
%c cc cc ccc ccc cccc cccc cccc cccc ccccc ccccc ccccc ccccc
%c cc cc ccc ccc cccc cccc cccc cccc ccccc ccccc ccccc ccccc
%f  0.0000000  0.000000000  0.00000000000  0.000000000000000
%f  0.0000000  0.000000000  0.00000000000  0.000000000000000
%i    0    0    0    0      0      0      0      0         0
%i    0    0    0    0      0      0      0      0         0
/*      NGA, ST. LOUIS,MO.                                  
/*   EPHEMERIS COMPUTED FROM 2 DAYS OF DATA                 
/*   EPOCHA v5 SMOOTHER                                     
/*   G1762 IERS2010 SATAF SATAPC                            
*  2020 12 22 16 35  0.00000000
P  1 -15927.120273  -2827.109502  20897.449523    792.095421                    
V  1  -8921.022282 -25435.605783  -9802.922652     -0.055303                    
P  2  14248.232042  21586.222720  -5372.568788   -557.401408                    
V  2    697.703101   8132.351843  30784.931456     -0.043940                    
P  3 -20149.915026   8623.470125  14850.807917    -36.605049                    
V  3  10433.273848 -16032.950684  23433.349124     -0.098622                    
P  4 -25828.287284   -498.405761  -6276.727683   -166.542811                    
V  4  -7310.843421  -4151.837600  30354.615594     -0.032286                    
P  5  11340.251840  10516.071722 -21739.236286    -29.020612                    
V  5 -16630.179856  21613.937595   1972.429184     -0.009728                    
P  6   4743.224606  25208.372925   6867.414431     -4.323488                    
V  6  -5002.477584  -7323.673077  30655.031386     -0.004669                    
P  7  -9786.085012  14105.512760 -19804.701268   -438.875439                    
V  7 -10482.594580 -23888.055471 -12121.535175     -0.073403                    
P  8 -26051.892537  -5392.515525  -2454.253880     -3.829091                    
V  8   3396.804939  -1865.019621 -31532.772411     -0.013494                    
P  9 -19279.639244   8816.299193 -16076.977414   -304.372383                    
V  9 -19824.348839  -4863.295628  21170.738239     -0.043450                    
P 10   9620.814075 -22643.035711   9753.384817    -21.961351                    
V 10   9682.505062  -8019.330357 -28713.504205     -0.087376                    
P 11 -22212.141253  -7957.585987  11381.309435    -74.151489                    
V 11  -8867.588110 -13185.127556 -25880.887065      0.105641                    
P 12  19746.365087  -4385.919949  16890.226777     23.383039                    
V 12 -13776.270203  17151.336479  20421.506942     -0.052209                    
P 13  20723.138742  13388.886337 -10127.684391     77.753604                    
V 13 -12716.940428  -1469.208504 -28231.238903      0.040068                    
P 14 -12420.086746  22152.997059   7766.680330     70.342113                    
V 14  -8565.130820   5595.146413 -29632.097472      0.091655                    
P 15  26567.184779   2733.833257  -2027.147520   -181.517232                    
V 15  -2297.811189   3390.507162 -30646.578405      0.025952                    
P 16  -9836.423243 -11347.092763 -22115.463671   -254.083784                    
V 16  19388.920877 -19521.900897   1857.540973     -0.054686                    
P 17  -1920.681331  14846.221478  22374.638539    370.444052                    
V 17 -26675.807797  -5779.044525   1557.974747      0.049748                    
P 18   8224.932030 -16385.374163 -19202.960690    334.958630                    
V 18   9418.308131  22517.910950 -15238.894142      0.035199                    
P 19   6263.257229  15688.867111  20235.542126    -61.909037                    
V 19 -25577.122366  -5970.457427  12294.829212      0.050102                    
P 20  15394.821770 -21252.140489  -3078.277628    525.501777                    
V 20   1241.672580   5265.775192 -31053.968414     -0.001665                    
P 21 -18270.377825 -10348.205531  17231.509911     79.988938                    
V 21  -7316.138608 -19035.895961 -19673.262949      0.034771                    
P 22 -17938.378435    579.947127  19727.271153   -711.087645                    
V 22  12490.203891 -21447.318928  12268.421964      0.061923                    
P 23  16520.406471 -20764.700831   -627.730921    111.913016                    
V 23   1743.316792   2305.973931 -31807.905318      0.026016                    
P 24  17949.710613   6610.880395  18349.321516      4.781007                    
V 24   8417.080179  22247.483430 -15657.563185     -0.005037                    
P 25  19428.738942 -16426.833810   6864.518669     44.798420                    
V 25  -3492.529636   8888.514086  30346.772863      0.072732                    
P 26   -967.102990 -19884.663549 -17497.865194     18.400049                    
V 26  14998.661953 -16616.729648  18351.776105      0.058473                    
P 27 -19435.183084 -12399.015448 -13648.177209    -40.305886                    
V 27  16945.838467   1126.283893 -25088.212593     -0.079769                    
P 28 -10104.918542  21889.674814  11916.097279    639.792463                    
V 28 -11126.420568   8925.394895 -26969.774610     -0.049289                    
P 29  20748.018018  -5806.980621 -15597.860310   -261.092275                    
V 29  18839.508408   5841.711010  22895.420951     -0.073961                    
P 30  -2593.857533  22584.126320 -13511.689692   -356.615143                    
V 30  -8504.027329 -15430.461093 -24294.543165     -0.062717                    
P 31  -5888.204386 -25298.356717   4104.039844    -89.208849                    
V 31   4911.777239   3960.466150  31387.105841     -0.023372                    
P 32    635.180996 -15396.971769  21726.821192      9.754609                    
V 32  27094.908947   3988.693738   1881.780637      0.024149                    
EOF
